[{"OBJECT_NAME":"NUSAT-33 (ALBANIA-2)","OBJECT_ID":"2023-001AQ","EPOCH":"2026-03-09T22:33:27.663264","MEAN_MOTION":15.26923259,"ECCENTRICITY":0.00076854,"INCLINATION":97.3178,"RA_OF_ASC_NODE":131.8399,"ARG_OF_PERICENTER":52.546,"MEAN_ANOMALY":307.6477,"EPHEMERIS_TYPE":0,"CLASSIFICATION_TYPE":"U","NORAD_CAT_ID":55047,"ELEMENT_SET_NO":999,"REV_AT_EPOCH":17716,"BSTAR":0.0004947656,"MEAN_MOTION_DOT":0.00013029,"MEAN_MOTION_DDOT":0},{"OBJECT_NAME":"STARLINK-30966","OBJECT_ID":"2023-183T","EPOCH":"2026-03-09T06:50:36.133152","MEAN_MOTION":15.27588736,"ECCENTRICITY":0.00016028,"INCLINATION":43.0015,"RA_OF_ASC_NODE":43.7959,"ARG_OF_PERICENTER":275.5141,"MEAN_ANOMALY":84.5528,"EPHEMERIS_TYPE":0,"CLASSIFICATION_TYPE":"U","NORAD_CAT_ID":58454,"ELEMENT_SET_NO":999,"REV_AT_EPOCH":12667,"BSTAR":6.2946626e-5,"MEAN_MOTION_DOT":1.471e-5,"MEAN_MOTION_DDOT":0}]
